[{"OBJECT_NAME":"AURA","OBJECT_ID":"2004-026A","EPOCH":"2026-03-09T21:39:31.960800","MEAN_MOTION":14.61149986,"ECCENTRICITY":0.0001042,"INCLINATION":98.3311,"RA_OF_ASC_NODE":24.6066,"ARG_OF_PERICENTER":85.0806,"MEAN_ANOMALY":275.0513,"EPHEMERIS_TYPE":0,"CLASSIFICATION_TYPE":"U","NORAD_CAT_ID":28376,"ELEMENT_SET_NO":999,"REV_AT_EPOCH":15171,"BSTAR":0.00028939986,"MEAN_MOTION_DOT":1.376e-5,"MEAN_MOTION_DDOT":0},{"OBJECT_NAME":"FENGYUN 1C DEB","OBJECT_ID":"1999-025CZE","EPOCH":"2026-03-08T15:29:07.263744","MEAN_MOTION":14.52590104,"ECCENTRICITY":0.00468839,"INCLINATION":98.8496,"RA_OF_ASC_NODE":136.2056,"ARG_OF_PERICENTER":144.4479,"MEAN_ANOMALY":215.9854,"EPHEMERIS_TYPE":0,"CLASSIFICATION_TYPE":"U","NORAD_CAT_ID":32361,"ELEMENT_SET_NO":999,"REV_AT_EPOCH":97591,"BSTAR":0.0023923285,"MEAN_MOTION_DOT":9.889e-5,"MEAN_MOTION_DDOT":0}]
